IRIDIUM 126             
1 42809U 17039G   23257.38891958  .00000174  00000+0  54933-4 0  9992
2 42809  86.3948  54.3828 0002353  92.4719 267.6746 14.34219933325645
IRIDIUM 124             
1 42810U 17039H   23257.99258344  .00000520  00000+0  14867-3 0  9993
2 42810  86.4552 350.9066 0001993  92.5860 267.5569 14.43277137329988
IRIDIUM 128             
1 42811U 17039J   23257.79827799  .00000146  00000+0  44998-4 0  9991
2 42811  86.3909  85.7624 0002222  85.8459 274.2991 14.34219449325737
IRIDIUM 121             
1 42812U 17039K   23257.89633094  .00000201  00000+0  64530-4 0  9992
2 42812  86.3949  54.1918 0002139  92.1078 268.0363 14.34219187325590
IRIDIUM 133             
1 42955U 17061A   23257.48114344  .00000166  00000+0  52095-4 0  9995
2 42955  86.3912  85.9886 0002297  89.9590 270.1869 14.34220098310482
IRIDIUM 100             
1 42956U 17061B   23258.03294849  .00000149  00000+0  46203-4 0  9992
2 42956  86.3910  85.6997 0002217  88.7281 271.4169 14.34218250310582
IRIDIUM 122             
1 42957U 17061C   23257.79193480  .00000158  00000+0  49444-4 0  9994
2 42957  86.3910  85.7982 0002261  85.3229 274.8225 14.34218689310533
IRIDIUM 129             
1 42958U 17061D   23258.02661626  .00000139  00000+0  42624-4 0  9996
2 42958  86.3910  85.7565 0002256  87.9075 272.2379 14.34217882310583
